NORAD_CAT_ID,OBJECT_NAME,OBJECT_TYPE,EPOCH,MEAN_MOTION,ECCENTRICITY,INCLINATION,RA_OF_ASC_NODE,ARG_OF_PERICENTER,MEAN_ANOMALY,BSTAR,MEAN_MOTION_DOT,MEAN_MOTION_DDOT,TLE_LINE0,TLE_LINE1,TLE_LINE2,SEMIMAJOR_AXIS,PERIOD,APOGEE,PERIGEE,DECAYED
53135.0,STARLINK-4023,PAYLOAD,2022-08-09 22:00:00,15.71881906,0.0002184,53.2174,291.4036,22.2388,130.5918,-0.0093534999999999,-0.01110157,0.0,0 STARLINK-4023,1 53135U 22083D   22221.91667824 -.01110157  00000-0 -93535-2 0  9999,2 53135  53.2174 291.4036 0002184  22.2388 130.5918 15.71881906  1303,6731.656,91.61,354.991,352.051,0.0
53135.0,STARLINK-4023,PAYLOAD,2022-08-10 04:00:00,15.71278161,0.0002143,53.2174,290.1658,23.1323,104.9296,-0.009566,-0.01106899,0.0,0 STARLINK-4023,1 53135U 22083D   22222.16667824 -.01106899  00000-0 -95660-2 0  9996,2 53135  53.2174 290.1658 0002143  23.1323 104.9296 15.71278161  4369,6733.38,91.645,356.68800000000016,353.802,0.0
53135.0,STARLINK-4023,PAYLOAD,2022-08-10 14:00:01,15.70272497,0.0001585,53.2175,288.1092,8.7937,316.7792,-0.0099491,-0.01103413,0.0,0 STARLINK-4023,1 53135U 22083D   22222.58334491 -.01103413  00000-0 -99491-2 0  9998,2 53135  53.2175 288.1092 0001585   8.7937 316.7792 15.70272497  1308,6736.255,91.704,359.18699999999984,357.052,0.0
53135.0,STARLINK-4023,PAYLOAD,2022-08-10 20:00:01,15.69673069,0.0001567,53.2174,286.8742,27.7431,271.613,-0.010253,-0.01108262,0.0,0 STARLINK-4023,1 53135U 22083D   22222.83334491 -.01108262  00000-0 -10253-1 0  9991,2 53135  53.2174 286.8742 0001567  27.7431 271.6130 15.69673069  4467,6737.969,91.739,360.89,358.779,0.0
53135.0,STARLINK-4023,PAYLOAD,2022-08-10 22:00:00,15.69471816,0.0001699999999999,53.2176,286.4624,26.9528,23.5443,-0.010324,-0.01106811,0.0,0 STARLINK-4023,1 53135U 22083D   22222.91667824 -.01106811  00000-0 -10324-1 0  9996,2 53135  53.2176 286.4624 0001700  26.9528  23.5443 15.69471816  1308,6738.545,91.751,361.556,359.265,0.0
53135.0,STARLINK-4023,PAYLOAD,2022-08-11 14:00:01,15.67863542,0.000147,53.2176,283.1799,49.1538,168.296,-0.01098,-0.01101617,0.0,0 STARLINK-4023,1 53135U 22083D   22223.58334491 -.01101617  00000-0 -10980-1 0  9998,2 53135  53.2176 283.1799 0001470  49.1538 168.2960 15.67863542  1307,6743.153,91.845,366.009,364.027,0.0
53135.0,STARLINK-4023,PAYLOAD,2022-08-11 20:00:01,15.67265645,0.0001526,53.2173,281.9489,44.7008,144.361,-0.011335,-0.01126805,0.0,0 STARLINK-4023,1 53135U 22083D   22223.83334491 -.01126805  00000-0 -11335-1 0  9997,2 53135  53.2173 281.9489 0001526  44.7008 144.3610 15.67265645  4626,6744.868,91.88,367.762,365.703,0.0
53135.0,STARLINK-4023,PAYLOAD,2022-08-12 14:00:01,15.65453335,0.0001385,53.2174,278.2682,47.0559,53.5881,-0.012076,-0.0111625,0.0,0 STARLINK-4023,1 53135U 22083D   22224.58334491 -.01116250  00000-0 -12076-1 0  9996,2 53135  53.2174 278.2682 0001385  47.0559  53.5881 15.65453335  4748,6750.071999999999,91.986,372.872,371.002,0.0
53135.0,STARLINK-4023,PAYLOAD,2022-08-12 22:00:01,15.64653083,0.0001534,53.2176,276.6328,43.232,136.6123,-0.012519,-0.01120238,0.0,0 STARLINK-4023,1 53135U 22083D   22224.91668981 -.01120238  00000-0 -12519-1 0  9990,2 53135  53.2176 276.6328 0001534  43.2320 136.6123 15.64653083  1301,6752.374,92.033,375.274,373.203,0.0
53135.0,STARLINK-4023,PAYLOAD,2022-08-13 04:00:00,15.64051031,0.0001533,53.2177,275.4089,46.2224,102.2744,-0.012815,-0.01119548,0.0,0 STARLINK-4023,1 53135U 22083D   22225.16667824 -.01119548  00000-0 -12815-1 0  9994,2 53135  53.2177 275.4089 0001533  46.2224 102.2744 15.64051031  4832,6754.106,92.069,377.007,374.936,0.0
53135.0,STARLINK-4023,PAYLOAD,2022-08-13 14:00:01,15.63047203,0.0001298,53.2174,273.374,45.2749,289.8782,-0.013332,-0.0111919,0.0,0 STARLINK-4023,1 53135U 22083D   22225.58334491 -.01119190  00000-0 -13332-1 0  9999,2 53135  53.2174 273.3740 0001298  45.2749 289.8782 15.63047203  1307,6756.998000000001,92.128,379.74,377.986,0.0
53135.0,STARLINK-4023,PAYLOAD,2022-08-13 22:00:00,15.62244068,0.0001289,53.2175,271.7445,44.6046,6.7905,-0.01376,-0.01119162,0.0,0 STARLINK-4023,1 53135U 22083D   22225.91667824 -.01119162  00000-0 -13760-1 0  9999,2 53135  53.2175 271.7445 0001289  44.6046   6.7905 15.62244068  1305,6759.313,92.175,382.05,380.307,0.0
53135.0,STARLINK-4023,PAYLOAD,2022-08-14 12:00:00,15.60839493,0.0001914,53.2174,268.9031,29.0195,63.4732,-0.014532,-0.01119155,0.0,0 STARLINK-4023,1 53135U 22083D   22226.50001157 -.01119155  00000-0 -14532-1 0  9996,2 53135  53.2174 268.9031 0001914  29.0195  63.4732 15.60839493  5043,6763.368,92.258,386.527,383.93800000000016,0.0
53135.0,STARLINK-4023,PAYLOAD,2022-08-14 14:00:01,15.60634834,0.0001485,53.2172,268.4974,48.9202,152.0611,-0.01455,-0.01112229,0.0,0 STARLINK-4023,1 53135U 22083D   22226.58334491 -.01112229  00000-0 -14550-1 0  9999,2 53135  53.2172 268.4974 0001485  48.9202 152.0611 15.60634834  1302,6763.959,92.27,386.829,384.82,0.0
53135.0,STARLINK-4023,PAYLOAD,2022-08-14 22:00:00,15.59835378,0.0001429,53.2174,266.8738,43.0962,231.2312,-0.0150949999999999,-0.01118189,0.0,0 STARLINK-4023,1 53135U 22083D   22226.91667824 -.01118189  00000-0 -15095-1 0  9991,2 53135  53.2174 266.8738 0001429  43.0962 231.2312 15.59835378  1303,6766.27,92.317,389.102,387.168,0.0
53135.0,STARLINK-4023,PAYLOAD,2022-08-15 04:00:00,15.59233594,0.0001631,53.2174,265.659,39.9759,198.7272,-0.0154419999999999,-0.01117878,0.0,0 STARLINK-4023,1 53135U 22083D   22227.16667824 -.01117878  00000-0 -15442-1 0  9999,2 53135  53.2174 265.6590 0001631  39.9759 198.7272 15.59233594  5149,6768.011,92.353,390.98,388.772,0.0
53135.0,STARLINK-4023,PAYLOAD,2022-08-15 14:00:01,15.58228939,0.0001409999999999,53.2172,263.6381,41.1023,17.0215,-0.016016,-0.0111596,0.0,0 STARLINK-4023,1 53135U 22083D   22227.58334491 -.01115960  00000-0 -16016-1 0  9994,2 53135  53.2172 263.6381 0001410  41.1023  17.0215 15.58228939  1307,6770.92,92.413,393.739,391.83,0.0
53135.0,STARLINK-4023,PAYLOAD,2022-08-15 20:00:01,15.57628569,0.0001471,53.2175,262.4244,35.694,345.3597,-0.0164449999999999,-0.01119707,0.0,0 STARLINK-4023,1 53135U 22083D   22227.83334491 -.01119707  00000-0 -16445-1 0  9991,2 53135  53.2175 262.4244 0001471  35.6940 345.3597 15.57628569  5247,6772.659000000002,92.448,395.521,393.528,0.0
53135.0,STARLINK-4023,PAYLOAD,2022-08-15 22:00:00,15.57425076,0.0001608,53.2173,262.0204,38.5402,90.0369,-0.01649,-0.01114735,0.0,0 STARLINK-4023,1 53135U 22083D   22227.91667824 -.01114735  00000-0 -16490-1 0  9995,2 53135  53.2173 262.0204 0001608  38.5402  90.0369 15.57425076  1306,6773.249,92.46,396.204,394.025,0.0
53135.0,STARLINK-4023,PAYLOAD,2022-08-16 12:00:00,15.56018221,0.0001726,53.2174,259.1995,39.9693,119.5758,-0.017327,-0.01111441,0.0,0 STARLINK-4023,1 53135U 22083D   22228.50001157 -.01111441  00000-0 -17327-1 0  9993,2 53135  53.2174 259.1995 0001726  39.9693 119.5758 15.56018221  5356,6777.331,92.544,400.366,398.027,0.0
53135.0,STARLINK-4023,PAYLOAD,2022-08-16 14:00:01,15.55820438,0.0001538,53.2172,258.7963,41.2382,225.3457,-0.0175199999999999,-0.01115111,0.0,0 STARLINK-4023,1 53135U 22083D   22228.58334491 -.01115111  00000-0 -17520-1 0  9994,2 53135  53.2172 258.7963 0001538  41.2382 225.3457 15.55820438  1309,6777.906,92.556,400.81300000000016,398.728,0.0
53135.0,STARLINK-4023,PAYLOAD,2022-08-16 22:00:00,15.55016717,0.0001533,53.2172,257.1843,33.6024,300.5405,-0.0180479999999999,-0.01114931,0.0,0 STARLINK-4023,1 53135U 22083D   22228.91667824 -.01114931  00000-0 -18048-1 0  9995,2 53135  53.2172 257.1843 0001533  33.6024 300.5405 15.55016717  1308,6780.241,92.604,403.145,401.067,0.0
53135.0,STARLINK-4023,PAYLOAD,2022-08-17 06:00:02,15.5421612,0.000171,53.2175,255.5773,30.7553,10.043,-0.018647,-0.01118102,0.0,0 STARLINK-4023,1 53135U 22083D   22229.25002315 -.01118102  00000-0 -18647-1 0  9990,2 53135  53.2175 255.5773 0001710  30.7553  10.0430 15.54216120  5468,6782.569,92.651,405.594,403.274,0.0
53135.0,STARLINK-4023,PAYLOAD,2022-08-17 14:00:01,15.53411838,0.0001696999999999,53.2171,253.972,35.7898,70.571,-0.019146,-0.01114948,0.0,0 STARLINK-4023,1 53135U 22083D   22229.58334491 -.01114948  00000-0 -19146-1 0  9998,2 53135  53.2171 253.9720 0001697  35.7898  70.5710 15.53411838  1302,6784.91,92.699,407.927,405.624,0.0
53135.0,STARLINK-4023,PAYLOAD,2022-08-18 06:00:02,15.51800315,0.0001675,53.2169,250.7662,44.372,190.4162,-0.020136,-0.01106692,0.0,0 STARLINK-4023,1 53135U 22083D   22230.25002315 -.01106692  00000-0 -20136-1 0  9999,2 53135  53.2169 250.7662 0001675  44.3720 190.4162 15.51800315  5627,6789.607,92.795,412.609,410.334,0.0
53135.0,STARLINK-4023,PAYLOAD,2022-08-18 14:00:01,15.51017677,0.0001754999999999,53.2163,249.1679,28.7537,268.672,-0.020136,-0.01078766,0.0,0 STARLINK-4023,1 53135U 22083D   22230.58334491 -.01078766  00000-0 -20136-1 0  9998,2 53135  53.2163 249.1679 0001755  28.7537 268.6720 15.51017677  1302,6791.891,92.842,414.947,412.564,0.0
53135.0,STARLINK-4023,PAYLOAD,2022-08-18 22:00:00,15.50129142,0.0001751999999999,53.2173,247.5677,35.031,324.2023,-0.0062885,-0.00345085,0.0,0 STARLINK-4023,1 53135U 22083D   22230.91667824 -.00345085  00000-0 -62885-2 0  9992,2 53135  53.2173 247.5677 0001752  35.0310 324.2023 15.50129142  5725,6794.486,92.895,417.541,415.16,0.0
53135.0,STARLINK-4023,PAYLOAD,2022-08-19 04:00:01,15.49885294,0.0001773,53.2177,246.3731,38.6061,276.5142,3.4755e-06,-2.55e-06,0.0,0 STARLINK-4023,1 53135U 22083D   22231.16668981 -.00000255  00000-0  34755-5 0  9999,2 53135  53.2177 246.3731 0001773  38.6061 276.5142 15.49885294  5762,6795.198,92.91,418.268,415.859,0.0
53135.0,STARLINK-4023,PAYLOAD,2022-08-19 14:00:01,15.49874885,0.0001927,53.2142,244.3934,33.3403,87.6841,0.00027957,0.00015441,0.0,0 STARLINK-4023,1 53135U 22083D   22231.58334491  .00015441  00000-0  27957-3 0  9997,2 53135  53.2142 244.3934 0001927  33.3403  87.6841 15.49874885  5839,6795.229,92.911,418.403,415.784,0.0
